{"type":"FeatureCollection","features":[{"type":"Feature","properties":{"name":"W 4th St - Washington Sq (Lower)","lines":"B-D-F-M"},"geometry":{"type":"Point","coordinates":[-74.00031,40.73225]}},{"type":"Feature","properties":{"name":"51st St","lines":"4-6-6 Express"},"geometry":{"type":"Point","coordinates":[-73.97192,40.75711]}},{"type":"Feature","properties":{"name":"86th St","lines":"1-2"},"geometry":{"type":"Point","coordinates":[-73.97622,40.78864]}},{"type":"Feature","properties":{"name":"Brooklyn Bridge - City Hall","lines":"4-5-6-6 Express"},"geometry":{"type":"Point","coordinates":[-74.00413,40.71307]}},{"type":"Feature","properties":{"name":"33rd St","lines":"4-6-6 Express"},"geometry":{"type":"Point","coordinates":[-73.98208,40.74608]}},{"type":"Feature","properties":{"name":"Lexington Ave - 59th St","lines":"4-5-6-6 Express"},"geometry":{"type":"Point","coordinates":[-73.96797,40.76253]}},{"type":"Feature","properties":{"name":"66th St - Lincoln Ctr","lines":"1-2"},"geometry":{"type":"Point","coordinates":[-73.98221,40.77344]}},{"type":"Feature","properties":{"name":"Canal St","lines":"1-2"},"geometry":{"type":"Point","coordinates":[-74.00628,40.72285]}},{"type":"Feature","properties":{"name":"23rd St","lines":"4-6-6 Express"},"geometry":{"type":"Point","coordinates":[-73.9866,40.73986]}},{"type":"Feature","properties":{"name":"45th Rd - Court House Sq","lines":"7-7 Express"},"geometry":{"type":"Point","coordinates":[-73.94526,40.74702]}},{"type":"Feature","properties":{"name":"Astor Pl","lines":"4-6-6 Express"},"geometry":{"type":"Point","coordinates":[-73.99107,40.73005]}},{"type":"Feature","properties":{"name":"59th St - Columbus Circle","lines":"1-2"},"geometry":{"type":"Point","coordinates":[-73.98193,40.76825]}},{"type":"Feature","properties":{"name":"Hunters Point Ave","lines":"7-7 Express"},"geometry":{"type":"Point","coordinates":[-73.94892,40.74222]}},{"type":"Feature","properties":{"name":"96th St","lines":"4-6-6 Express"},"geometry":{"type":"Point","coordinates":[-73.95107,40.78567]}},{"type":"Feature","properties":{"name":"23rd St","lines":"1-2"},"geometry":{"type":"Point","coordinates":[-73.99566,40.74408]}},{"type":"Feature","properties":{"name":"Houston St","lines":"1-2"},"geometry":{"type":"Point","coordinates":[-74.00537,40.72825]}},{"type":"Feature","properties":{"name":"3rd Ave - 138th St","lines":"6-6 Express"},"geometry":{"type":"Point","coordinates":[-73.92614,40.81048]}},{"type":"Feature","properties":{"name":"Bleecker St (Downtown)","lines":"4-6-6 Express"},"geometry":{"type":"Point","coordinates":[-73.99467,40.72593]}},{"type":"Feature","properties":{"name":"50th St","lines":"1-2"},"geometry":{"type":"Point","coordinates":[-73.98385,40.76173]}},{"type":"Feature","properties":{"name":"Vernon Blvd - Jackson Ave","lines":"7-7 Express"},"geometry":{"type":"Point","coordinates":[-73.95358,40.74263]}},{"type":"Feature","properties":{"name":"68th St - Hunter College","lines":"4-6-6 Express"},"geometry":{"type":"Point","coordinates":[-73.96387,40.76814]}},{"type":"Feature","properties":{"name":"Queensboro Plz","lines":"7-7 Express-N-W"},"geometry":{"type":"Point","coordinates":[-73.94016,40.75064]}},{"type":"Feature","properties":{"name":"Union Sq - 14th St","lines":"4-5-6-6 Express"},"geometry":{"type":"Point","coordinates":[-73.98995,40.73467]}},{"type":"Feature","properties":{"name":"Classon Ave","lines":"G"},"geometry":{"type":"Point","coordinates":[-73.95999,40.68889]}},{"type":"Feature","properties":{"name":"Bedford - Nostrand Aves","lines":"G"},"geometry":{"type":"Point","coordinates":[-73.95352,40.68963]}},{"type":"Feature","properties":{"name":"Bergen St","lines":"2-3-4"},"geometry":{"type":"Point","coordinates":[-73.975,40.68086]}},{"type":"Feature","properties":{"name":"Atlantic Ave","lines":"2-3-4-5"},"geometry":{"type":"Point","coordinates":[-73.97755,40.68442]}},{"type":"Feature","properties":{"name":"Fulton St","lines":"G"},"geometry":{"type":"Point","coordinates":[-73.97537,40.68712]}},{"type":"Feature","properties":{"name":"Clinton - Washington Aves","lines":"G"},"geometry":{"type":"Point","coordinates":[-73.9668,40.68809]}},{"type":"Feature","properties":{"name":"Atlantic Ave","lines":"B-Q"},"geometry":{"type":"Point","coordinates":[-73.97678,40.68449]}},{"type":"Feature","properties":{"name":"Atlantic Av - Pacific St","lines":"D-N-R"},"geometry":{"type":"Point","coordinates":[-73.97881,40.68367]}},{"type":"Feature","properties":{"name":"Borough Hall","lines":"4-5"},"geometry":{"type":"Point","coordinates":[-73.99015,40.6924]}},{"type":"Feature","properties":{"name":"DeKalb Ave","lines":"B-D-N-Q-R"},"geometry":{"type":"Point","coordinates":[-73.98182,40.69063]}},{"type":"Feature","properties":{"name":"Nostrand Ave","lines":"A-C"},"geometry":{"type":"Point","coordinates":[-73.95043,40.68044]}},{"type":"Feature","properties":{"name":"Nevins St","lines":"2-3-4-5"},"geometry":{"type":"Point","coordinates":[-73.98041,40.68831]}},{"type":"Feature","properties":{"name":"Nassau Ave","lines":"G"},"geometry":{"type":"Point","coordinates":[-73.95118,40.72448]}},{"type":"Feature","properties":{"name":"Greenpoint Ave","lines":"G"},"geometry":{"type":"Point","coordinates":[-73.95443,40.73127]}},{"type":"Feature","properties":{"name":"Marcy Ave","lines":"J-M-Z"},"geometry":{"type":"Point","coordinates":[-73.95783,40.70838]}},{"type":"Feature","properties":{"name":"Hewes St","lines":"J-M"},"geometry":{"type":"Point","coordinates":[-73.95349,40.70689]}},{"type":"Feature","properties":{"name":"Essex St","lines":"J-M-Z"},"geometry":{"type":"Point","coordinates":[-73.98741,40.71831]}},{"type":"Feature","properties":{"name":"138th St - Grand Concourse","lines":"4-5"},"geometry":{"type":"Point","coordinates":[-73.92985,40.81322]}},{"type":"Feature","properties":{"name":"5th Ave - 53rd St","lines":"E-M"},"geometry":{"type":"Point","coordinates":[-73.97525,40.76009]}},{"type":"Feature","properties":{"name":"Lexington Ave - 53rd St","lines":"E-M"},"geometry":{"type":"Point","coordinates":[-73.96907,40.75747]}},{"type":"Feature","properties":{"name":"28th St","lines":"N-R"},"geometry":{"type":"Point","coordinates":[-73.9887,40.74545]}},{"type":"Feature","properties":{"name":"Herald Sq - 34th St","lines":"N-Q-R"},"geometry":{"type":"Point","coordinates":[-73.98794,40.74964]}},{"type":"Feature","properties":{"name":"1st Ave","lines":"L"},"geometry":{"type":"Point","coordinates":[-73.98168,40.73098]}},{"type":"Feature","properties":{"name":"Grand Central - 42nd St","lines":"S"},"geometry":{"type":"Point","coordinates":[-73.97919,40.75277]}},{"type":"Feature","properties":{"name":"Times Sq - 42nd St","lines":"S"},"geometry":{"type":"Point","coordinates":[-73.98623,40.75598]}},{"type":"Feature","properties":{"name":"42nd St - Bryant Pk","lines":"B-D-F-M"},"geometry":{"type":"Point","coordinates":[-73.98459,40.75418]}},{"type":"Feature","properties":{"name":"Times Sq - 42nd St","lines":"N-Q-R"},"geometry":{"type":"Point","coordinates":[-73.98677,40.75461]}},{"type":"Feature","properties":{"name":"Metropolitan Ave","lines":"G"},"geometry":{"type":"Point","coordinates":[-73.95142,40.71277]}},{"type":"Feature","properties":{"name":"Grand St","lines":"L"},"geometry":{"type":"Point","coordinates":[-73.9405,40.71158]}},{"type":"Feature","properties":{"name":"Graham Ave","lines":"L"},"geometry":{"type":"Point","coordinates":[-73.94394,40.71458]}},{"type":"Feature","properties":{"name":"Lorimer St","lines":"L"},"geometry":{"type":"Point","coordinates":[-73.95025,40.71407]}},{"type":"Feature","properties":{"name":"Bedford Ave","lines":"L"},"geometry":{"type":"Point","coordinates":[-73.95666,40.71717]}},{"type":"Feature","properties":{"name":"Broadway","lines":"G"},"geometry":{"type":"Point","coordinates":[-73.95031,40.70613]}},{"type":"Feature","properties":{"name":"Lorimer St","lines":"J-M"},"geometry":{"type":"Point","coordinates":[-73.94735,40.70384]}},{"type":"Feature","properties":{"name":"Montrose Ave","lines":"L"},"geometry":{"type":"Point","coordinates":[-73.93979,40.70739]}},{"type":"Feature","properties":{"name":"23rd St - Ely Av","lines":"E-M"},"geometry":{"type":"Point","coordinates":[-73.94605,40.74777]}},{"type":"Feature","properties":{"name":"Long Island City - Court Sq","lines":"G"},"geometry":{"type":"Point","coordinates":[-73.94382,40.74631]}},{"type":"Feature","properties":{"name":"21st St","lines":"G"},"geometry":{"type":"Point","coordinates":[-73.9496,40.74413]}},{"type":"Feature","properties":{"name":"39th Ave","lines":"N-Q"},"geometry":{"type":"Point","coordinates":[-73.93285,40.75276]}},{"type":"Feature","properties":{"name":"36th Ave","lines":"N-Q"},"geometry":{"type":"Point","coordinates":[-73.92986,40.75644]}},{"type":"Feature","properties":{"name":"96th St","lines":"1-2-3"},"geometry":{"type":"Point","coordinates":[-73.97232,40.79392]}},{"type":"Feature","properties":{"name":"103rd St","lines":"1"},"geometry":{"type":"Point","coordinates":[-73.96838,40.79945]}},{"type":"Feature","properties":{"name":"Central Park North (110th St)","lines":"2-3"},"geometry":{"type":"Point","coordinates":[-73.95182,40.79908]}},{"type":"Feature","properties":{"name":"103rd St","lines":"A-B-C"},"geometry":{"type":"Point","coordinates":[-73.96137,40.79606]}},{"type":"Feature","properties":{"name":"Cathedral Pkwy (110th St)","lines":"A-B-C"},"geometry":{"type":"Point","coordinates":[-73.95807,40.80058]}},{"type":"Feature","properties":{"name":"72nd St","lines":"1-2-3"},"geometry":{"type":"Point","coordinates":[-73.98197,40.77845]}},{"type":"Feature","properties":{"name":"72nd St","lines":"A-B-C"},"geometry":{"type":"Point","coordinates":[-73.97634,40.77552]}},{"type":"Feature","properties":{"name":"81st St","lines":"A-B-C"},"geometry":{"type":"Point","coordinates":[-73.9721,40.78135]}},{"type":"Feature","properties":{"name":"86th St","lines":"A-B-C"},"geometry":{"type":"Point","coordinates":[-73.96883,40.78582]}},{"type":"Feature","properties":{"name":"96th St","lines":"A-B-C"},"geometry":{"type":"Point","coordinates":[-73.9646,40.79162]}},{"type":"Feature","properties":{"name":"Cathedral Pkwy (110th St)","lines":"1"},"geometry":{"type":"Point","coordinates":[-73.96685,40.80397]}},{"type":"Feature","properties":{"name":"116th St - Columbia University","lines":"1"},"geometry":{"type":"Point","coordinates":[-73.96411,40.80772]}},{"type":"Feature","properties":{"name":"125th St","lines":"2-3"},"geometry":{"type":"Point","coordinates":[-73.9455,40.80775]}},{"type":"Feature","properties":{"name":"135th St","lines":"2-3"},"geometry":{"type":"Point","coordinates":[-73.94077,40.81423]}},{"type":"Feature","properties":{"name":"149th St - Grand Concourse","lines":"4"},"geometry":{"type":"Point","coordinates":[-73.92738,40.8183]}},{"type":"Feature","properties":{"name":"116th St","lines":"2-3"},"geometry":{"type":"Point","coordinates":[-73.94963,40.8021]}},{"type":"Feature","properties":{"name":"79th St","lines":"1-2"},"geometry":{"type":"Point","coordinates":[-73.97992,40.78393]}},{"type":"Feature","properties":{"name":"Christopher St - Sheridan Sq","lines":"1-2"},"geometry":{"type":"Point","coordinates":[-74.00291,40.73342]}},{"type":"Feature","properties":{"name":"Times Sq - 42nd St","lines":"7-7 Express"},"geometry":{"type":"Point","coordinates":[-73.98769,40.75548]}},{"type":"Feature","properties":{"name":"77th St","lines":"4-6-6 Express"},"geometry":{"type":"Point","coordinates":[-73.95987,40.77362]}},{"type":"Feature","properties":{"name":"28th St","lines":"1-2"},"geometry":{"type":"Point","coordinates":[-73.99337,40.74722]}},{"type":"Feature","properties":{"name":"28th St","lines":"4-6-6 Express"},"geometry":{"type":"Point","coordinates":[-73.98426,40.74307]}},{"type":"Feature","properties":{"name":"18th St","lines":"1-2"},"geometry":{"type":"Point","coordinates":[-73.99787,40.74104]}},{"type":"Feature","properties":{"name":"Grand Central - 42nd St","lines":"4-5-6-6 Express"},"geometry":{"type":"Point","coordinates":[-73.97671,40.75181]}},{"type":"Feature","properties":{"name":"Grand Central - 42nd St","lines":"7-7 Express"},"geometry":{"type":"Point","coordinates":[-73.97604,40.75143]}},{"type":"Feature","properties":{"name":"Canal St","lines":"4-6-6 Express"},"geometry":{"type":"Point","coordinates":[-74.00019,40.7188]}},{"type":"Feature","properties":{"name":"W 4th St - Washington Sq (Upper)","lines":"A-C-E"},"geometry":{"type":"Point","coordinates":[-74.0005,40.73234]}},{"type":"Feature","properties":{"name":"125th St","lines":"1"},"geometry":{"type":"Point","coordinates":[-73.95837,40.81558]}},{"type":"Feature","properties":{"name":"Franklin Ave - Fulton St","lines":"S"},"geometry":{"type":"Point","coordinates":[-73.95583,40.6806]}},{"type":"Feature","properties":{"name":"149th St - Grand Concourse","lines":"2-5"},"geometry":{"type":"Point","coordinates":[-73.92672,40.81833]}},{"type":"Feature","properties":{"name":"33rd St","lines":"7"},"geometry":{"type":"Point","coordinates":[-73.931,40.74459]}},{"type":"Feature","properties":{"name":"40th St","lines":"7"},"geometry":{"type":"Point","coordinates":[-73.92402,40.74378]}},{"type":"Feature","properties":{"name":"36th St","lines":"E-M-R"},"geometry":{"type":"Point","coordinates":[-73.92902,40.75196]}},{"type":"Feature","properties":{"name":"Steinway St","lines":"E-M-R"},"geometry":{"type":"Point","coordinates":[-73.92053,40.75699]}},{"type":"Feature","properties":{"name":"Kosciuszko St","lines":"J"},"geometry":{"type":"Point","coordinates":[-73.92851,40.69317]}},{"type":"Feature","properties":{"name":"Gates Ave","lines":"J-Z"},"geometry":{"type":"Point","coordinates":[-73.92216,40.68958]}},{"type":"Feature","properties":{"name":"Central Ave","lines":"M"},"geometry":{"type":"Point","coordinates":[-73.92724,40.69787]}},{"type":"Feature","properties":{"name":"Broadway","lines":"N-Q"},"geometry":{"type":"Point","coordinates":[-73.92582,40.76143]}},{"type":"Feature","properties":{"name":"30th Ave","lines":"N-Q"},"geometry":{"type":"Point","coordinates":[-73.92148,40.76678]}},{"type":"Feature","properties":{"name":"Jefferson St","lines":"L"},"geometry":{"type":"Point","coordinates":[-73.92291,40.70661]}},{"type":"Feature","properties":{"name":"Morgan Ave","lines":"L"},"geometry":{"type":"Point","coordinates":[-73.93315,40.70615]}},{"type":"Feature","properties":{"name":"Queens Plz","lines":"E-M-R"},"geometry":{"type":"Point","coordinates":[-73.93714,40.74892]}},{"type":"Feature","properties":{"name":"21st St - Queensbridge","lines":"F"},"geometry":{"type":"Point","coordinates":[-73.94194,40.75374]}},{"type":"Feature","properties":{"name":"50th St","lines":"A-C-E"},"geometry":{"type":"Point","coordinates":[-73.98598,40.76246]}},{"type":"Feature","properties":{"name":"7th Ave","lines":"B-D-E"},"geometry":{"type":"Point","coordinates":[-73.9817,40.76297]}},{"type":"Feature","properties":{"name":"47th-50th Sts - Rockefeller Ctr","lines":"B-D-F-M"},"geometry":{"type":"Point","coordinates":[-73.98133,40.75864]}},{"type":"Feature","properties":{"name":"57th St","lines":"F"},"geometry":{"type":"Point","coordinates":[-73.97737,40.76409]}},{"type":"Feature","properties":{"name":"Lexington Ave - 63rd St","lines":"F"},"geometry":{"type":"Point","coordinates":[-73.96609,40.76462]}},{"type":"Feature","properties":{"name":"Roosevelt Island - Main St","lines":"F"},"geometry":{"type":"Point","coordinates":[-73.95324,40.75917]}},{"type":"Feature","properties":{"name":"59th St - Columbus Circle","lines":"A-B-C-D"},"geometry":{"type":"Point","coordinates":[-73.98165,40.76825]}},{"type":"Feature","properties":{"name":"49th St","lines":"N-Q-R"},"geometry":{"type":"Point","coordinates":[-73.98421,40.7598]}},{"type":"Feature","properties":{"name":"57th St","lines":"N-Q-R"},"geometry":{"type":"Point","coordinates":[-73.98073,40.76457]}},{"type":"Feature","properties":{"name":"5th Ave - 59th St","lines":"N-Q-R"},"geometry":{"type":"Point","coordinates":[-73.97335,40.76481]}},{"type":"Feature","properties":{"name":"Lexington Ave - 59th St","lines":"N-Q-R"},"geometry":{"type":"Point","coordinates":[-73.96738,40.76271]}},{"type":"Feature","properties":{"name":"34th St - Penn Station","lines":"1-2-3"},"geometry":{"type":"Point","coordinates":[-73.99106,40.75037]}},{"type":"Feature","properties":{"name":"Times Sq - 42nd St","lines":"1-2-3"},"geometry":{"type":"Point","coordinates":[-73.9875,40.75529]}},{"type":"Feature","properties":{"name":"Broadway - Nassau St","lines":"A-C"},"geometry":{"type":"Point","coordinates":[-74.00762,40.71016]}},{"type":"Feature","properties":{"name":"Chambers St","lines":"A-C"},"geometry":{"type":"Point","coordinates":[-74.00858,40.71411]}},{"type":"Feature","properties":{"name":"42nd St - Port Authority Bus Term","lines":"A-C-E"},"geometry":{"type":"Point","coordinates":[-73.98974,40.75731]}},{"type":"Feature","properties":{"name":"Myrtle-Willoughby Aves","lines":"G"},"geometry":{"type":"Point","coordinates":[-73.94907,40.69462]}},{"type":"Feature","properties":{"name":"Flushing Ave","lines":"G"},"geometry":{"type":"Point","coordinates":[-73.95023,40.70038]}},{"type":"Feature","properties":{"name":"23rd St","lines":"F-M"},"geometry":{"type":"Point","coordinates":[-73.99277,40.74295]}},{"type":"Feature","properties":{"name":"Herald Sq - 34th St","lines":"B-D-F-M"},"geometry":{"type":"Point","coordinates":[-73.98777,40.74979]}},{"type":"Feature","properties":{"name":"Hoyt - Schermerhorn Sts","lines":"A-C-G"},"geometry":{"type":"Point","coordinates":[-73.98504,40.68841]}},{"type":"Feature","properties":{"name":"Jay St - Borough Hall","lines":"A-C-F"},"geometry":{"type":"Point","coordinates":[-73.98722,40.69247]}},{"type":"Feature","properties":{"name":"East Broadway","lines":"F"},"geometry":{"type":"Point","coordinates":[-73.99018,40.71386]}},{"type":"Feature","properties":{"name":"Delancey St","lines":"F"},"geometry":{"type":"Point","coordinates":[-73.98808,40.71868]}},{"type":"Feature","properties":{"name":"Lower East Side - 2nd Ave","lines":"F"},"geometry":{"type":"Point","coordinates":[-73.98994,40.7234]}},{"type":"Feature","properties":{"name":"Flushing Ave","lines":"J-M"},"geometry":{"type":"Point","coordinates":[-73.94138,40.7004]}},{"type":"Feature","properties":{"name":"Myrtle Ave","lines":"J-M-Z"},"geometry":{"type":"Point","coordinates":[-73.93562,40.6972]}},{"type":"Feature","properties":{"name":"Bergen St","lines":"F-G"},"geometry":{"type":"Point","coordinates":[-73.99076,40.68611]}},{"type":"Feature","properties":{"name":"Lawrence St","lines":"N-R"},"geometry":{"type":"Point","coordinates":[-73.98606,40.69226]}},{"type":"Feature","properties":{"name":"Court St","lines":"N-R"},"geometry":{"type":"Point","coordinates":[-73.99182,40.6942]}},{"type":"Feature","properties":{"name":"Union Sq - 14th St","lines":"N-Q-R"},"geometry":{"type":"Point","coordinates":[-73.99054,40.73587]}},{"type":"Feature","properties":{"name":"23rd St","lines":"N-R"},"geometry":{"type":"Point","coordinates":[-73.98934,40.7413]}},{"type":"Feature","properties":{"name":"3rd Ave","lines":"L"},"geometry":{"type":"Point","coordinates":[-73.98575,40.73269]}},{"type":"Feature","properties":{"name":"Union Sq - 14th St","lines":"L"},"geometry":{"type":"Point","coordinates":[-73.99067,40.73476]}},{"type":"Feature","properties":{"name":"Carroll St","lines":"F-G"},"geometry":{"type":"Point","coordinates":[-73.99495,40.68027]}},{"type":"Feature","properties":{"name":"Spring St","lines":"A-C-E"},"geometry":{"type":"Point","coordinates":[-74.00374,40.72623]}},{"type":"Feature","properties":{"name":"116th St","lines":"A-B-C"},"geometry":{"type":"Point","coordinates":[-73.9548,40.80506]}},{"type":"Feature","properties":{"name":"125th St","lines":"A-B-C-D"},"geometry":{"type":"Point","coordinates":[-73.95225,40.81107]}},{"type":"Feature","properties":{"name":"Prince St","lines":"N-R"},"geometry":{"type":"Point","coordinates":[-73.9977,40.72433]}},{"type":"Feature","properties":{"name":"8th St - NYU","lines":"N-R"},"geometry":{"type":"Point","coordinates":[-73.99251,40.73047]}},{"type":"Feature","properties":{"name":"Fulton St","lines":"2-3"},"geometry":{"type":"Point","coordinates":[-74.00657,40.70942]}},{"type":"Feature","properties":{"name":"Park Pl","lines":"2-3"},"geometry":{"type":"Point","coordinates":[-74.00881,40.71305]}},{"type":"Feature","properties":{"name":"Chambers St","lines":"1-2-3"},"geometry":{"type":"Point","coordinates":[-74.00927,40.71548]}},{"type":"Feature","properties":{"name":"Hoyt St","lines":"2-3"},"geometry":{"type":"Point","coordinates":[-73.98506,40.69054]}},{"type":"Feature","properties":{"name":"Borough Hall","lines":"2-3"},"geometry":{"type":"Point","coordinates":[-73.99,40.69322]}},{"type":"Feature","properties":{"name":"World Trade Center","lines":"E"},"geometry":{"type":"Point","coordinates":[-74.00974,40.71256]}},{"type":"Feature","properties":{"name":"Canal St - Holland Tunnel","lines":"A-C-E"},"geometry":{"type":"Point","coordinates":[-74.00523,40.72082]}},{"type":"Feature","properties":{"name":"Fulton St","lines":"J-Z"},"geometry":{"type":"Point","coordinates":[-74.00794,40.71002]}},{"type":"Feature","properties":{"name":"Chambers St","lines":"J-Z"},"geometry":{"type":"Point","coordinates":[-74.00341,40.71323]}},{"type":"Feature","properties":{"name":"Canal St","lines":"J-Z"},"geometry":{"type":"Point","coordinates":[-73.99983,40.71817]}},{"type":"Feature","properties":{"name":"City Hall","lines":"N-R"},"geometry":{"type":"Point","coordinates":[-74.00699,40.71327]}},{"type":"Feature","properties":{"name":"Canal St","lines":"N-R"},"geometry":{"type":"Point","coordinates":[-74.00183,40.71947]}},{"type":"Feature","properties":{"name":"South Ferry","lines":"1"},"geometry":{"type":"Point","coordinates":[-74.01317,40.70173]}},{"type":"Feature","properties":{"name":"Bowling Green","lines":"4-5"},"geometry":{"type":"Point","coordinates":[-74.01401,40.70491]}},{"type":"Feature","properties":{"name":"Wall St","lines":"4-5"},"geometry":{"type":"Point","coordinates":[-74.01186,40.70756]}},{"type":"Feature","properties":{"name":"Whitehall St","lines":"N-R"},"geometry":{"type":"Point","coordinates":[-74.01301,40.70314]}},{"type":"Feature","properties":{"name":"Rector St","lines":"N-R"},"geometry":{"type":"Point","coordinates":[-74.01297,40.70775]}},{"type":"Feature","properties":{"name":"Rector St","lines":"1"},"geometry":{"type":"Point","coordinates":[-74.01378,40.70751]}},{"type":"Feature","properties":{"name":"Cortlandt St (Temporarily Closed)","lines":"1"},"geometry":{"type":"Point","coordinates":[-74.01219,40.71184]}},{"type":"Feature","properties":{"name":"Fulton St","lines":"4-5"},"geometry":{"type":"Point","coordinates":[-74.00951,40.71037]}},{"type":"Feature","properties":{"name":"Broad St","lines":"J-Z"},"geometry":{"type":"Point","coordinates":[-74.01106,40.70648]}},{"type":"Feature","properties":{"name":"Cortlandt St (NB only)","lines":"N-R"},"geometry":{"type":"Point","coordinates":[-74.01113,40.71051]}},{"type":"Feature","properties":{"name":"Wall St","lines":"2-3"},"geometry":{"type":"Point","coordinates":[-74.0091,40.70682]}},{"type":"Feature","properties":{"name":"Grand St","lines":"B-D"},"geometry":{"type":"Point","coordinates":[-73.99375,40.71827]}},{"type":"Feature","properties":{"name":"Broadway - Lafayette St","lines":"B-D-F-M"},"geometry":{"type":"Point","coordinates":[-73.9962,40.7253]}},{"type":"Feature","properties":{"name":"Bowery","lines":"J-Z"},"geometry":{"type":"Point","coordinates":[-73.99381,40.72025]}},{"type":"Feature","properties":{"name":"Canal St","lines":"N-Q"},"geometry":{"type":"Point","coordinates":[-74.00105,40.71881]}},{"type":"Feature","properties":{"name":"23rd St","lines":"A-C-E"},"geometry":{"type":"Point","coordinates":[-73.99804,40.74591]}},{"type":"Feature","properties":{"name":"34th St - Penn Station","lines":"A-C-E"},"geometry":{"type":"Point","coordinates":[-73.99339,40.75229]}},{"type":"Feature","properties":{"name":"14th St","lines":"1-2-3"},"geometry":{"type":"Point","coordinates":[-74.0002,40.73783]}},{"type":"Feature","properties":{"name":"135th St","lines":"A-B-C"},"geometry":{"type":"Point","coordinates":[-73.94753,40.81791]}},{"type":"Feature","properties":{"name":"14th St","lines":"F-M"},"geometry":{"type":"Point","coordinates":[-73.99621,40.73823]}},{"type":"Feature","properties":{"name":"6th Ave","lines":"L"},"geometry":{"type":"Point","coordinates":[-73.99775,40.73774]}},{"type":"Feature","properties":{"name":"8th Ave","lines":"L"},"geometry":{"type":"Point","coordinates":[-74.00258,40.73978]}},{"type":"Feature","properties":{"name":"14th St","lines":"A-C-E"},"geometry":{"type":"Point","coordinates":[-74.00169,40.74089]}},{"type":"Feature","properties":{"name":"Clark St","lines":"2-3"},"geometry":{"type":"Point","coordinates":[-73.99309,40.69747]}},{"type":"Feature","properties":{"name":"Franklin Ave","lines":"A-C"},"geometry":{"type":"Point","coordinates":[-73.95685,40.68138]}},{"type":"Feature","properties":{"name":"Clinton - Washington Aves","lines":"A-C"},"geometry":{"type":"Point","coordinates":[-73.96584,40.68326]}},{"type":"Feature","properties":{"name":"110th St","lines":"4-6-6 Express"},"geometry":{"type":"Point","coordinates":[-73.94425,40.79502]}},{"type":"Feature","properties":{"name":"86th St","lines":"4-5-6-6 Express"},"geometry":{"type":"Point","coordinates":[-73.95559,40.77949]}},{"type":"Feature","properties":{"name":"York St","lines":"F"},"geometry":{"type":"Point","coordinates":[-73.98688,40.69974]}},{"type":"Feature","properties":{"name":"High St","lines":"A-C"},"geometry":{"type":"Point","coordinates":[-73.99053,40.69934]}},{"type":"Feature","properties":{"name":"Lafayette Ave","lines":"A-C"},"geometry":{"type":"Point","coordinates":[-73.97395,40.68611]}},{"type":"Feature","properties":{"name":"Bleecker St (Uptown)","lines":"4-6-6 Express"},"geometry":{"type":"Point","coordinates":[-73.99466,40.72591]}},{"type":"Feature","properties":{"name":"103rd St","lines":"4-6-6 Express"},"geometry":{"type":"Point","coordinates":[-73.94748,40.7906]}},{"type":"Feature","properties":{"name":"116th St","lines":"4-6-6 Express"},"geometry":{"type":"Point","coordinates":[-73.94162,40.79863]}},{"type":"Feature","properties":{"name":"Franklin St","lines":"1-2"},"geometry":{"type":"Point","coordinates":[-74.00689,40.71932]}},{"type":"Feature","properties":{"name":"5th Ave - Bryant Pk","lines":"7-7 Express"},"geometry":{"type":"Point","coordinates":[-73.98196,40.75382]}},{"type":"Feature","properties":{"name":"Spring St","lines":"4-6-6 Express"},"geometry":{"type":"Point","coordinates":[-73.99714,40.7223]}},{"type":"Feature","properties":{"name":"125th St","lines":"4-5-6-6 Express"},"geometry":{"type":"Point","coordinates":[-73.93759,40.80414]}}]}